OBJECT_NAME,OBJECT_ID,EPOCH,MEAN_MOTION,ECCENTRICITY,INCLINATION,RA_OF_ASC_NODE,ARG_OF_PERICENTER,MEAN_ANOMALY,EPHEMERIS_TYPE,CLASSIFICATION_TYPE,NORAD_CAT_ID,ELEMENT_SET_NO,REV_AT_EPOCH,BSTAR,MEAN_MOTION_DOT,MEAN_MOTION_DDOT
SAUDISAT 1C (SO-50),2002-058C,2026-06-16T06:41:17.643552,14.83045303,.00752794,64.5510,131.7962,262.6422,96.6125,0,U,27607,999,26432,.11840739E-3,.856E-5,0
SAUDISAT 2,2004-025F,2026-06-16T06:33:39.814272,14.56683498,.0023625,98.5508,167.2317,301.2028,58.6853,0,U,28371,999,16561,.57790519E-4,.209E-5,0
SAUDISAT 3,2007-012B,2026-06-16T07:21:35.182944,14.71425191,.0013588,98.1456,117.7067,226.7776,133.2297,0,U,31118,999,2761,.42979293E-4,.215E-5,0
PISAT,2016-059B,2026-06-16T06:12:15.137856,14.68982128,.00283029,97.8179,167.7512,205.8139,154.1656,0,U,41784,999,51960,.13129333E-3,.726E-5,0
FLYING LAPTOP,2017-042G,2026-06-16T07:39:19.351008,15.01139426,.00195388,97.4680,322.8843,124.5322,235.7751,0,U,42831,999,48632,.18322224E-3,.2299E-4,0
SALSAT,2020-068K,2026-06-15T23:14:07.134432,15.29785416,.00081144,97.8844,169.9584,313.3675,46.6887,0,U,46495,999,31517,.23912148E-3,.682E-4,0
